{
    "satellites": [
        {
            "name": "starlink363",
            "title": "Starlink-363 (G17-18) (new)",
            "tle": [
                "1 70077C 26044Z   26070.87409722 -.00776570  00000+0 -80871-3 0   701",
                "2 70077  97.2832  30.8572 0001369  73.1858  41.1477 16.11347804    10"
            ],
            "stdMag": 5,
            "noradId": "72001",
            "intDes": "2026-044",
            "tleUrl": "http://celestrak.org/NORAD/elements/supplemental/sup-gp.php?FILE=starlink-g17-18&FORMAT=tle",
            "launchDate": "2026-03-08T11:00:19.000Z",
            "active": true
        },
        {
            "name": "starlink362",
            "title": "Starlink-362 (G10-40)",
            "tle": [
                "1 68096C 26042AD  26070.87201389 -.01469600  00000+0 -32209-2 0   701",
                "2 68096  53.1598 183.9766 0000920  64.4981  19.6685 15.98915082    19"
            ],
            "stdMag": 5,
            "noradId": "68096",
            "intDes": "2026-042",
            "tleUrl": "http://celestrak.org/NORAD/elements/supplemental/sup-gp.php?FILE=starlink&FORMAT=tle",
            "launchDate": "2026-03-04T10:52:20.000Z",
            "active": true,
            "batch": [
                {
                    "noradId": "68096",
                    "tle": [
                        "1 68096C 26042AD  26070.87201389 -.01469600  00000+0 -32209-2 0   701",
                        "2 68096  53.1598 183.9766 0000920  64.4981  19.6685 15.98915082    19"
                    ]
                },
                {
                    "noradId": "68097",
                    "tle": [
                        "1 68097C 26042AE  26070.87548611 -.01464800  00000+0 -32548-2 0   707",
                        "2 68097  53.1597 183.9692 0000926  73.7911  25.4045 15.98662151    10"
                    ]
                },
                {
                    "noradId": "68095",
                    "tle": [
                        "1 68095C 26042AC  26070.87687500 -.01448300  00000+0 -32597-2 0   707",
                        "2 68095  53.1598 183.9776 0000917  74.5396  25.3330 15.98412762    15"
                    ]
                },
                {
                    "noradId": "68094",
                    "tle": [
                        "1 68094C 26042AB  26070.87548611 -.01467100  00000+0 -32394-2 0   709",
                        "2 68094  53.1594 183.9643 0001027  60.3804  41.1616 15.98779239    11"
                    ]
                },
                {
                    "noradId": "68093",
                    "tle": [
                        "1 68093C 26042AA  26070.87062500 -.01452100  00000+0 -32439-2 0   700",
                        "2 68093  53.1597 184.0049 0000895  64.9844   1.2346 15.98552847    12"
                    ]
                },
                {
                    "noradId": "68092",
                    "tle": [
                        "1 68092C 26042Z   26070.87062500 -.01451600  00000+0 -32845-2 0   704",
                        "2 68092  53.1597 184.0140 0001000  65.6173 356.2194 15.98320282    15"
                    ]
                },
                {
                    "noradId": "68090",
                    "tle": [
                        "1 68090C 26042X   26070.87131944 -.01454200  00000+0 -33114-2 0   700",
                        "2 68090  53.1601 184.0148 0000903  64.0918 359.6609 15.98207592    14"
                    ]
                },
                {
                    "noradId": "68091",
                    "tle": [
                        "1 68091C 26042Y   26070.87618056 -.01448500  00000+0 -33223-2 0   702",
                        "2 68091  53.1598 183.9944 0001000  70.3628  19.1117 15.98069390    13"
                    ]
                },
                {
                    "noradId": "68089",
                    "tle": [
                        "1 68089C 26042W   26070.86784722 -.01444800  00000+0 -33316-2 0   704",
                        "2 68089  53.1600 184.0429 0000923  68.3924 330.5181 15.97968971    16"
                    ]
                },
                {
                    "noradId": "68088",
                    "tle": [
                        "1 68088C 26042V   26070.86854167 -.01446300  00000+0 -33565-2 0   707",
                        "2 68088  53.1598 184.0434 0000935  64.5773 336.2364 15.97853210    15"
                    ]
                },
                {
                    "noradId": "68087",
                    "tle": [
                        "1 68087C 26042U   26070.87062500 -.01445300  00000+0 -33771-2 0   707",
                        "2 68087  53.1599 184.0377 0000929  69.2250 341.1786 15.97728198    15"
                    ]
                },
                {
                    "noradId": "68086",
                    "tle": [
                        "1 68086C 26042T   26070.86993056 -.01445800  00000+0 -33991-2 0   703",
                        "2 68086  53.1599 184.0458 0000860  67.3891 336.8604 15.97614939    15"
                    ]
                },
                {
                    "noradId": "68085",
                    "tle": [
                        "1 68085C 26042S   26070.86784722 -.01440100  00000+0 -34066-2 0   702",
                        "2 68085  53.1597 184.0616 0000974  65.7947 323.9535 15.97496664    11"
                    ]
                },
                {
                    "noradId": "68084",
                    "tle": [
                        "1 68084C 26042R   26070.87131944 -.01449700  00000+0 -34524-2 0   708",
                        "2 68084  53.1597 184.0472 0000802  65.6148 342.4530 15.97383877    14"
                    ]
                },
                {
                    "noradId": "68083",
                    "tle": [
                        "1 68083C 26042Q   26070.87201389 -.01445400  00000+0 -34650-2 0   701",
                        "2 68083  53.1602 184.0483 0000912  66.0504 343.6981 15.97258324    16"
                    ]
                },
                {
                    "noradId": "68082",
                    "tle": [
                        "1 68082C 26042P   26070.87201389 -.01446200  00000+0 -34887-2 0   701",
                        "2 68082  53.1599 184.0528 0000894  64.3934 343.1871 15.97142741    15"
                    ]
                },
                {
                    "noradId": "68080",
                    "tle": [
                        "1 68080C 26042M   26070.86784722 -.01452000  00000+0 -35224-2 0   706",
                        "2 68080  53.1598 184.0781 0000828  63.8316 317.8557 15.97046139    11"
                    ]
                },
                {
                    "noradId": "68081",
                    "tle": [
                        "1 68081C 26042N   26070.86923611 -.01446100  00000+0 -35311-2 0   700",
                        "2 68081  53.1603 184.0756 0000928  64.0607 323.4694 15.96919482    12"
                    ]
                },
                {
                    "noradId": "68079",
                    "tle": [
                        "1 68079C 26042L   26070.87340278 -.01441400  00000+0 -35678-2 0   704",
                        "2 68079  53.1595 184.0641 0001000  65.5979 341.1153 15.96662421    17"
                    ]
                },
                {
                    "noradId": "68078",
                    "tle": [
                        "1 68078C 26042K   26070.86923611 -.01444200  00000+0 -35492-2 0   705",
                        "2 68078  53.1601 184.0804 0000760  66.4107 318.7725 15.96798365    12"
                    ]
                },
                {
                    "noradId": "68077",
                    "tle": [
                        "1 68077C 26042J   26070.87340278 -.01444200  00000+0 -35973-2 0   701",
                        "2 68077  53.1600 184.0683 0001111  48.4518 356.2641 15.96548962    12"
                    ]
                },
                {
                    "noradId": "68076",
                    "tle": [
                        "1 68076C 26042H   26070.87270833 -.01447000  00000+0 -36268-2 0   708",
                        "2 68076  53.1598 184.0760 0000851  68.5291 330.1409 15.96436498    17"
                    ]
                },
                {
                    "noradId": "68075",
                    "tle": [
                        "1 68075C 26042G   26070.86923611 -.01445200  00000+0 -36436-2 0   702",
                        "2 68075  53.1598 184.0986 0000825  65.1641 311.2203 15.96325818    14"
                    ]
                },
                {
                    "noradId": "68074",
                    "tle": [
                        "1 68074C 26042F   26070.87340278 -.01437500  00000+0 -36502-2 0   702",
                        "2 68074  53.1598 184.0824 0000913  68.7303 329.0954 15.96184454    15"
                    ]
                },
                {
                    "noradId": "68073",
                    "tle": [
                        "1 68073C 26042E   26070.87062500 -.01429800  00000+0 -36522-2 0   706",
                        "2 68073  53.1600 184.1020 0000815  63.8414 315.5546 15.96065619    15"
                    ]
                },
                {
                    "noradId": "68071",
                    "tle": [
                        "1 68071C 26042C   26070.87340278 -.01426800  00000+0 -36699-2 0   707",
                        "2 68071  53.1600 184.0922 0001058  46.8552 346.2123 15.95932645    10"
                    ]
                },
                {
                    "noradId": "68072",
                    "tle": [
                        "1 68072C 26042D   26070.87062500 -.01415900  00000+0 -36638-2 0   709",
                        "2 68072  53.1599 184.1117 0000776  64.1683 310.4267 15.95809710    17"
                    ]
                },
                {
                    "noradId": "68070",
                    "tle": [
                        "1 68070C 26042B   26070.87062500 -.01420200  00000+0 -36986-2 0   702",
                        "2 68070  53.1593 184.1158 0000707  72.4244 300.1682 15.95694879    18"
                    ]
                },
                {
                    "noradId": "68069",
                    "tle": [
                        "1 68069C 26042A   26070.87062500 -.01414500  00000+0 -37075-2 0   706",
                        "2 68069  53.1598 184.1206 0000756  63.5267 306.7524 15.95567715    10"
                    ]
                }
            ]
        }
    ],
    "config": {}
}